[{"address":"2408 SAN GABRIEL","id":36015,"state":"TX","total_votes":212,"city":"Austin","state_name":"Texas","lon":-97.74824079999999,"winner":"purple","zip":"78705","votes":{"red":44,"purple":116,"blue":52},"distance":1.4,"lat":30.2887821},{"address":"2600 GUADALUPE","id":16996,"state":"TX","total_votes":738,"city":"Austin","state_name":"Texas","lon":-97.74163399999999,"winner":"red","zip":"78705-4009","votes":{"red":275,"purple":201,"blue":262},"distance":1.4,"lat":30.2906482},{"address":"5101 N LAMAR","id":24008,"state":"TX","total_votes":991,"city":"Austin","state_name":"Texas","lon":-97.73044150000001,"winner":"blue","zip":"78751-2319","votes":{"red":210,"purple":292,"blue":489},"distance":1.6,"lat":30.318741},{"address":"2330 GAUDALUPE","id":36986,"state":"TX","total_votes":712,"city":"Austin","state_name":"Texas","lon":-97.74159580000001,"winner":"blue","zip":"78705","votes":{"red":162,"purple":243,"blue":307},"distance":1.6,"lat":30.2871125},{"address":"2803 SAN JACINTO","id":37138,"state":"TX","total_votes":961,"city":"Austin","state_name":"Texas","lon":-97.73429,"winner":"blue","zip":"78705","votes":{"red":364,"purple":192,"blue":405},"distance":1.6,"lat":30.29077},{"address":"1814 GUADALUPE","id":23295,"state":"TX","total_votes":872,"city":"Austin","state_name":"Texas","lon":-97.7420482,"winner":"purple","zip":"78701-1217","votes":{"red":244,"purple":359,"blue":269},"distance":2.0,"lat":30.2812587},{"address":"5901 BURNET ROAD","id":24397,"state":"TX","total_votes":579,"city":"Austin","state_name":"Texas","lon":-97.7393265,"winner":"blue","zip":"78757-1132","votes":{"red":157,"purple":125,"blue":297},"distance":2.0,"lat":30.3349274},{"address":"3324 NORTHLAND DR","id":36274,"state":"TX","total_votes":328,"city":"Austin","state_name":"Texas","lon":-97.7564733,"winner":"purple","zip":"78731","votes":{"red":103,"purple":122,"blue":103},"distance":2.1,"lat":30.3375685},{"address":"408 W 15TH ST","id":12705,"state":"TX","total_votes":965,"city":"Austin","state_name":"Texas","lon":-97.7437009,"winner":"purple","zip":"78701-1625","votes":{"red":181,"purple":498,"blue":286},"distance":2.1,"lat":30.2785376},{"address":"2620 LAKE AUSTIN BLVD","id":25157,"state":"TX","total_votes":296,"city":"Austin","state_name":"Texas","lon":-97.77558189999999,"winner":"purple","zip":"78703-4453","votes":{"red":67,"purple":127,"blue":102},"distance":2.2,"lat":30.2820786},{"address":"917 N LAMAR","id":21884,"state":"TX","total_votes":710,"city":"Austin","state_name":"Texas","lon":-97.75196369999999,"winner":"purple","zip":"78703-4946","votes":{"red":139,"purple":364,"blue":207},"distance":2.3,"lat":30.2746437},{"address":"823 CONGRESS","id":36999,"state":"TX","total_votes":754,"city":"Austin","state_name":"Texas","lon":-97.7416363,"winner":"purple","zip":"78701","votes":{"red":154,"purple":302,"blue":298},"distance":2.7,"lat":30.270586},{"address":"613 CONGRESS AVE","id":35878,"state":"TX","total_votes":27,"city":"Austin","state_name":"Texas","lon":-97.742195,"winner":"purple","zip":"78701","votes":{"red":5,"purple":15,"blue":7},"distance":2.8,"lat":30.268448},{"address":"3848 AIRPORT BLVD","id":36680,"state":"TX","total_votes":499,"city":"Austin","state_name":"Texas","lon":-97.70783899999999,"winner":"purple","zip":"78722","votes":{"red":81,"purple":249,"blue":169},"distance":3.0,"lat":30.289498},{"address":"3550 FAR WEST BLVD","id":36273,"state":"TX","total_votes":445,"city":"Austin","state_name":"Texas","lon":-97.7533615,"winner":"purple","zip":"78731","votes":{"red":67,"purple":198,"blue":180},"distance":3.2,"lat":30.353957},{"address":"7114 I-35 N","id":36618,"state":"TX","total_votes":503,"city":"Austin","state_name":"Texas","lon":-97.70505299999999,"winner":"blue","zip":"78752","votes":{"red":154,"purple":164,"blue":185},"distance":3.4,"lat":30.332818},{"address":"7844 BURNETT RD","id":36630,"state":"TX","total_votes":309,"city":"Austin","state_name":"Texas","lon":-97.7317989,"winner":"purple","zip":"78757","votes":{"red":70,"purple":132,"blue":107},"distance":3.6,"lat":30.3560479},{"address":"6707 CAMERON RD","id":36612,"state":"TX","total_votes":2090,"city":"Austin","state_name":"Texas","lon":-97.69403489999999,"winner":"blue","zip":"78752","votes":{"red":442,"purple":737,"blue":911},"distance":3.7,"lat":30.3223915},{"address":"3625 BEE CAVE RD","id":36577,"state":"TX","total_votes":267,"city":"Austin","state_name":"Texas","lon":-97.8058696,"winner":"purple","zip":"78746","votes":{"red":80,"purple":125,"blue":62},"distance":3.8,"lat":30.27783699999999},{"address":"1403 S LAMAR BLVD","id":34252,"state":"TX","total_votes":690,"city":"Austin","state_name":"Texas","lon":-97.76285,"winner":"blue","zip":"78704-7031","votes":{"red":136,"purple":205,"blue":349},"distance":3.9,"lat":30.252477},{"address":"2103 S CONGRESS","id":22245,"state":"TX","total_votes":598,"city":"Austin","state_name":"Texas","lon":-97.751571,"winner":"purple","zip":"78704-4316","votes":{"red":124,"purple":379,"blue":95},"distance":4.5,"lat":30.2431621},{"address":"1705 S LAKESHORE BLVD","id":19097,"state":"TX","total_votes":883,"city":"Austin","state_name":"Texas","lon":-97.72971079999999,"winner":"purple","zip":"78741-1259","votes":{"red":216,"purple":443,"blue":224},"distance":4.6,"lat":30.2446481},{"address":"6111 BEE CAVE RD","id":36565,"state":"TX","total_votes":98,"city":"Austin","state_name":"Texas","lon":-97.8300209,"winner":"red","zip":"78746","votes":{"red":44,"purple":30,"blue":24},"distance":4.6,"lat":30.2957206},{"address":"8900 N LAMAR","id":25445,"state":"TX","total_votes":530,"city":"Austin","state_name":"Texas","lon":-97.7004353,"winner":"blue","zip":"78753-4766","votes":{"red":138,"purple":159,"blue":233},"distance":4.7,"lat":30.3582995},{"address":"2820 SOUTH LAMAR","id":23621,"state":"TX","total_votes":683,"city":"Austin","state_name":"Texas","lon":-97.7822108,"winner":"purple","zip":"78704-3961","votes":{"red":164,"purple":333,"blue":186},"distance":4.7,"lat":30.24406819999999},{"address":"9061 RESEARCH BLVD","id":36621,"state":"TX","total_votes":437,"city":"Austin","state_name":"Texas","lon":-97.726754,"winner":"purple","zip":"78758-7037","votes":{"red":130,"purple":175,"blue":132},"distance":4.8,"lat":30.3742578},{"address":"863 AIRPORT BLV","id":35808,"state":"TX","total_votes":1276,"city":"Austin","state_name":"Texas","lon":-97.69309899999999,"winner":"purple","zip":"78702","votes":{"red":285,"purple":538,"blue":453},"distance":4.9,"lat":30.259153},{"address":"9200 BURNET RD","id":34251,"state":"TX","total_votes":478,"city":"Austin","state_name":"Texas","lon":-97.7265698,"winner":"purple","zip":"78758","votes":{"red":85,"purple":203,"blue":190},"distance":5.0,"lat":30.376023},{"address":"1320 E OLTORF ST","id":36636,"state":"TX","total_votes":750,"city":"Austin","state_name":"Texas","lon":-97.74211869999999,"winner":"purple","zip":"78704-5714","votes":{"red":116,"purple":422,"blue":212},"distance":5.1,"lat":30.2342636},{"address":"1747 EAST OLTORF","id":12702,"state":"TX","total_votes":1390,"city":"Austin","state_name":"Texas","lon":-97.7373594,"winner":"blue","zip":"78741-3816","votes":{"red":233,"purple":228,"blue":929},"distance":5.3,"lat":30.2320479},{"address":"6518 ED BLUESTEIN BLVD","id":36604,"state":"TX","total_votes":1506,"city":"Austin","state_name":"Texas","lon":-97.6617989,"winner":"purple","zip":"78723","votes":{"red":466,"purple":584,"blue":456},"distance":5.5,"lat":30.3033264},{"address":"1822 RUTLAND DR","id":36561,"state":"TX","total_votes":895,"city":"Austin","state_name":"Texas","lon":-97.7114963,"winner":"blue","zip":"78758","votes":{"red":333,"purple":186,"blue":376},"distance":5.5,"lat":30.3790602},{"address":"10111 N LAMAR","id":30467,"state":"TX","total_votes":690,"city":"Austin","state_name":"Texas","lon":-97.6921691,"winner":"purple","zip":"78753-3601","votes":{"red":156,"purple":320,"blue":214},"distance":5.7,"lat":30.370642},{"address":"601 W BEN WHITE BLVD","id":26353,"state":"TX","total_votes":2400,"city":"Austin","state_name":"Texas","lon":-97.7703078,"winner":"purple","zip":"78704-7031","votes":{"red":548,"purple":1081,"blue":771},"distance":5.8,"lat":30.2259992},{"address":"8600 E HWY 290","id":36266,"state":"TX","total_votes":1158,"city":"Austin","state_name":"Texas","lon":-97.659855,"winner":"blue","zip":"78724","votes":{"red":366,"purple":383,"blue":409},"distance":5.8,"lat":30.328985},{"address":"201 W BEN WHITE","id":36591,"state":"TX","total_votes":1301,"city":"Austin","state_name":"Texas","lon":-97.76511149999999,"winner":"purple","zip":"78704-7154","votes":{"red":337,"purple":538,"blue":426},"distance":6.0,"lat":30.2223712},{"address":"2616 W BRAKER","id":36610,"state":"TX","total_votes":558,"city":"Austin","state_name":"Texas","lon":-97.7212234,"winner":"red","zip":"78758","votes":{"red":203,"purple":193,"blue":162},"distance":6.1,"lat":30.3918132},{"address":"10800 RESEARCH BLVD","id":36609,"state":"TX","total_votes":1065,"city":"Austin","state_name":"Texas","lon":-97.7470136,"winner":"purple","zip":"78759","votes":{"red":125,"purple":843,"blue":97},"distance":6.4,"lat":30.4001368},{"address":"5445 HWY 290 W","id":36597,"state":"TX","total_votes":201,"city":"Austin","state_name":"Texas","lon":-97.84027859999999,"winner":"purple","zip":"78735","votes":{"red":59,"purple":92,"blue":50},"distance":7.2,"lat":30.2357534},{"address":"7715 E BEN WHITE BLVD","id":36642,"state":"TX","total_votes":870,"city":"Austin","state_name":"Texas","lon":-97.6889997,"winner":"purple","zip":"78744","votes":{"red":278,"purple":310,"blue":282},"distance":7.3,"lat":30.21807309999999},{"address":"12000 N MO PAC EXPY","id":36592,"state":"TX","total_votes":475,"city":"Austin","state_name":"Texas","lon":-97.7155014,"winner":"purple","zip":"78758-2904","votes":{"red":108,"purple":211,"blue":156},"distance":7.4,"lat":30.40963279999999},{"address":"6306 MANCHACA","id":23807,"state":"TX","total_votes":1223,"city":"Austin","state_name":"Texas","lon":-97.80498879999999,"winner":"blue","zip":"78745-4929","votes":{"red":369,"purple":405,"blue":449},"distance":7.5,"lat":30.2093303},{"address":"11587 JOLLEYVILLE RD","id":36265,"state":"TX","total_votes":98,"city":"Austin","state_name":"Texas","lon":-97.7481961,"winner":"purple","zip":"78759","votes":{"red":27,"purple":49,"blue":22},"distance":7.5,"lat":30.4164695},{"address":"11643 RESEARCH BLVD","id":36563,"state":"TX","total_votes":637,"city":"Austin","state_name":"Texas","lon":-97.74539399999999,"winner":"purple","zip":"78759","votes":{"red":159,"purple":306,"blue":172},"distance":7.5,"lat":30.4164384},{"address":"9704 GILES RD","id":35801,"state":"TX","total_votes":657,"city":"Austin","state_name":"Texas","lon":-97.62401489999999,"winner":"purple","zip":"78754","votes":{"red":116,"purple":365,"blue":176},"distance":7.9,"lat":30.3317531},{"address":"3431 W WILLIAM CANNON DR","id":36641,"state":"TX","total_votes":801,"city":"Austin","state_name":"Texas","lon":-97.8303085,"winner":"purple","zip":"78745","votes":{"red":240,"purple":289,"blue":272},"distance":8.0,"lat":30.213168},{"address":"6607 CIRCLE S RD","id":39069,"state":"TX","total_votes":1624,"city":"Austin","state_name":"Texas","lon":-97.77685179999999,"winner":"purple","zip":"78745","votes":{"red":483,"purple":658,"blue":483},"distance":8.1,"lat":30.1932341},{"address":"1625 E PARMER LN","id":36600,"state":"TX","total_votes":450,"city":"Austin","state_name":"Texas","lon":-97.68735,"winner":"blue","zip":"78754-9745","votes":{"red":65,"purple":189,"blue":196},"distance":8.2,"lat":30.41146},{"address":"6515 S IH 35","id":36587,"state":"TX","total_votes":1701,"city":"Austin","state_name":"Texas","lon":-97.769479,"winner":"blue","zip":"78744-3411","votes":{"red":482,"purple":503,"blue":716},"distance":8.2,"lat":30.190374},{"address":"1100 W PARMER LN","id":36588,"state":"TX","total_votes":1780,"city":"Austin","state_name":"Texas","lon":-97.67873000000002,"winner":"red","zip":"78727-4607","votes":{"red":1119,"purple":207,"blue":454},"distance":8.3,"lat":30.4085294},{"address":"1901 E WILLIAM CANNON DR","id":35792,"state":"TX","total_votes":657,"city":"Austin","state_name":"Texas","lon":-97.765704,"winner":"blue","zip":"78744","votes":{"red":176,"purple":233,"blue":248},"distance":8.3,"lat":30.188065},{"address":"3801 W PARMER LN","id":36263,"state":"TX","total_votes":645,"city":"Austin","state_name":"Texas","lon":-97.713504,"winner":"purple","zip":"78727","votes":{"red":244,"purple":253,"blue":148},"distance":8.4,"lat":30.4238532},{"address":"8010 BRODIE LN","id":24909,"state":"TX","total_votes":550,"city":"Austin","state_name":"Texas","lon":-97.8380095,"winner":"purple","zip":"78745-7451","votes":{"red":120,"purple":323,"blue":107},"distance":8.8,"lat":30.20295329999999},{"address":"7002 RANCH RD 620 N","id":36564,"state":"TX","total_votes":2178,"city":"Austin","state_name":"Texas","lon":-97.85500449999999,"winner":"purple","zip":"78732","votes":{"red":692,"purple":804,"blue":682},"distance":8.9,"lat":30.4032539},{"address":"9401 N I-H35","id":36633,"state":"TX","total_votes":392,"city":"Austin","state_name":"Texas","lon":-97.67180959999999,"winner":"blue","zip":"78753","votes":{"red":54,"purple":166,"blue":172},"distance":9.0,"lat":30.4172688},{"address":"6422 S LOCKHART HWY 183","id":36562,"state":"TX","total_votes":1749,"city":"Austin","state_name":"Texas","lon":-97.68605529999999,"winner":"purple","zip":"78744","votes":{"red":457,"purple":678,"blue":614},"distance":9.2,"lat":30.1889675},{"address":"13641 IH 35","id":35805,"state":"TX","total_votes":683,"city":"Austin","state_name":"Texas","lon":-97.67124451696873,"winner":"purple","zip":"78753","votes":{"red":185,"purple":270,"blue":228},"distance":9.4,"lat":30.42368732392788},{"address":"1624 E HOWARD LN","id":35473,"state":"TX","total_votes":427,"city":"Austin","state_name":"Texas","lon":-97.6384638,"winner":"purple","zip":"78753","votes":{"red":98,"purple":207,"blue":122},"distance":9.6,"lat":30.4043656},{"address":"525 SLAUGHTER LN","id":36267,"state":"TX","total_votes":506,"city":"Austin","state_name":"Texas","lon":-97.799542,"winner":"purple","zip":"78748","votes":{"red":118,"purple":213,"blue":175},"distance":9.8,"lat":30.171865},{"address":"9909 MANCHACA RD","id":36586,"state":"TX","total_votes":218,"city":"Austin","state_name":"Texas","lon":-97.82339309999999,"winner":"blue","zip":"78748","votes":{"red":44,"purple":37,"blue":137},"distance":10.2,"lat":30.173265},{"address":"14730 N IH 35","id":36616,"state":"TX","total_votes":1407,"city":"Austin","state_name":"Texas","lon":-97.670007,"winner":"purple","zip":"78728-7006","votes":{"red":459,"purple":497,"blue":451},"distance":10.4,"lat":30.439386},{"address":"15010 FM 1825","id":34253,"state":"TX","total_votes":655,"city":"Pflugerville","state_name":"Texas","lon":-97.665879,"winner":"blue","zip":"78660","votes":{"red":144,"purple":245,"blue":266},"distance":10.7,"lat":30.443134},{"address":"10207 LAKE CREEK PKWY","id":36589,"state":"TX","total_votes":1533,"city":"Austin","state_name":"Texas","lon":-97.79289879999999,"winner":"purple","zip":"78729-1712","votes":{"red":413,"purple":830,"blue":290},"distance":10.8,"lat":30.4612679},{"address":"11518 N. FM 620","id":32654,"state":"TX","total_votes":181,"city":"Austin","state_name":"Texas","lon":-97.82735269999999,"winner":"red","zip":"78726-1109","votes":{"red":87,"purple":70,"blue":24},"distance":11.0,"lat":30.454011},{"address":"11613 N FM 620","id":36599,"state":"TX","total_votes":608,"city":"Austin","state_name":"Texas","lon":-97.8246473,"winner":"purple","zip":"78750","votes":{"red":126,"purple":401,"blue":81},"distance":11.0,"lat":30.4555987},{"address":"15829 IH 35","id":36575,"state":"TX","total_votes":437,"city":"Pflugerville","state_name":"Texas","lon":-97.664885,"winner":"purple","zip":"78660","votes":{"red":115,"purple":177,"blue":145},"distance":11.5,"lat":30.455267},{"address":"14016 FM 620 N.","id":32248,"state":"TX","total_votes":646,"city":"Austin","state_name":"Texas","lon":-97.766007,"winner":"red","zip":"78717","votes":{"red":235,"purple":185,"blue":226},"distance":11.7,"lat":30.4770367},{"address":"3636 RANCH RD 620 N","id":36559,"state":"TX","total_votes":1858,"city":"Austin","state_name":"Texas","lon":-97.9280862,"winner":"purple","zip":"78734","votes":{"red":562,"purple":846,"blue":450},"distance":12.1,"lat":30.3982311},{"address":"2801 LA FORNTERA BLVD","id":36603,"state":"TX","total_votes":669,"city":"Round Rock","state_name":"Texas","lon":-97.68463,"winner":"purple","zip":"78681","votes":{"red":218,"purple":243,"blue":208},"distance":12.5,"lat":30.47872},{"address":"1801 S LAKELINE BLVD","id":36596,"state":"TX","total_votes":605,"city":"Cedar Park","state_name":"Texas","lon":-97.8323037,"winner":"purple","zip":"78613","votes":{"red":130,"purple":353,"blue":122},"distance":12.8,"lat":30.48074819999999},{"address":"1515 CYPRESS CREEK RD","id":33112,"state":"TX","total_votes":579,"city":"Cedar Park","state_name":"Texas","lon":-97.8332731,"winner":"purple","zip":"78613","votes":{"red":118,"purple":337,"blue":124},"distance":12.9,"lat":30.4813288},{"address":"16310 RR 620","id":36977,"state":"TX","total_votes":892,"city":"Round Rock","state_name":"Texas","lon":-97.725955,"winner":"purple","zip":"78681","votes":{"red":287,"purple":331,"blue":274},"distance":13.0,"lat":30.494076},{"address":"553 LOUIS HENNA BLVD","id":36557,"state":"TX","total_votes":317,"city":"Round Rock","state_name":"Texas","lon":-97.66079339999999,"winner":"purple","zip":"78664","votes":{"red":5,"purple":260,"blue":52},"distance":13.2,"lat":30.4816402},{"address":"17511 SHULTZ LN","id":35623,"state":"TX","total_votes":1084,"city":"Pflugerville","state_name":"Texas","lon":-97.63938189999999,"winner":"purple","zip":"78660","votes":{"red":219,"purple":676,"blue":189},"distance":13.4,"lat":30.4748566},{"address":"1717 PFLUGERVILLE PKWY","id":35624,"state":"TX","total_votes":1328,"city":"Pflugerville","state_name":"Texas","lon":-97.6030571,"winner":"blue","zip":"78660","votes":{"red":514,"purple":218,"blue":596},"distance":13.6,"lat":30.4558714},{"address":"1801 S. MAYS","id":25853,"state":"TX","total_votes":335,"city":"Round Rock","state_name":"Texas","lon":-97.675332,"winner":"purple","zip":"78664-7530","votes":{"red":100,"purple":128,"blue":107},"distance":13.6,"lat":30.493365},{"address":"600 MCNEIL RD","id":21359,"state":"TX","total_votes":1135,"city":"Round Rock","state_name":"Texas","lon":-97.68561079999999,"winner":"purple","zip":"78681-6703","votes":{"red":289,"purple":617,"blue":229},"distance":13.9,"lat":30.5002583},{"address":"2901 BRUSHY CREEK RD","id":36556,"state":"TX","total_votes":1058,"city":"Cedar Park","state_name":"Texas","lon":-97.77458659999999,"winner":"purple","zip":"78613","votes":{"red":354,"purple":355,"blue":349},"distance":13.9,"lat":30.5088662},{"address":"2680 GATTIS SCHOOL RD","id":36103,"state":"TX","total_votes":34,"city":"Round Rock","state_name":"Texas","lon":-97.646132,"winner":"purple","zip":"78664","votes":{"red":2,"purple":24,"blue":8},"distance":14.5,"lat":30.496914},{"address":"1909 HERMITAGE DR","id":25945,"state":"TX","total_votes":113,"city":"Round Rock","state_name":"Texas","lon":-97.706006,"winner":"red","zip":"78681-1953","votes":{"red":59,"purple":12,"blue":42},"distance":15.2,"lat":30.524247},{"address":"900 W WHITESTONE","id":36056,"state":"TX","total_votes":989,"city":"Cedar Park","state_name":"Texas","lon":-97.839839,"winner":"red","zip":"78613","votes":{"red":512,"purple":72,"blue":405},"distance":15.3,"lat":30.517142},{"address":"1000 N BELL BLVD","id":36585,"state":"TX","total_votes":539,"city":"Cedar Park","state_name":"Texas","lon":-97.8290936,"winner":"red","zip":"78613-7078","votes":{"red":200,"purple":155,"blue":184},"distance":15.4,"lat":30.5203625},{"address":"1118 PALM VALLEY ROAD","id":25391,"state":"TX","total_votes":119,"city":"Round Rock","state_name":"Texas","lon":-97.66858719999999,"winner":"purple","zip":"78664-3234","votes":{"red":42,"purple":51,"blue":26},"distance":15.4,"lat":30.518143},{"address":"1713 N MAYS","id":26815,"state":"TX","total_votes":1371,"city":"Round Rock","state_name":"Texas","lon":-97.6859262,"winner":"purple","zip":"78664-2914","votes":{"red":230,"purple":906,"blue":235},"distance":15.5,"lat":30.5248196},{"address":"3001 E WHITESTONE BLVD","id":36261,"state":"TX","total_votes":213,"city":"Cedar Park","state_name":"Texas","lon":-97.78368309999999,"winner":"purple","zip":"78613","votes":{"red":45,"purple":125,"blue":43},"distance":15.8,"lat":30.53507549999999},{"address":"1900 BAGDAD DR","id":36581,"state":"TX","total_votes":448,"city":"Cedar Park","state_name":"Texas","lon":-97.84424399999999,"winner":"blue","zip":"78613","votes":{"red":112,"purple":126,"blue":210},"distance":16.2,"lat":30.529546},{"address":"2607 S HWY 183","id":36573,"state":"TX","total_votes":862,"city":"Leander","state_name":"Texas","lon":-97.84098100000001,"winner":"purple","zip":"78641","votes":{"red":299,"purple":330,"blue":233},"distance":17.2,"lat":30.544778},{"address":"3000 N A W GRIMES BLVD","id":35727,"state":"TX","total_votes":1723,"city":"Round Rock","state_name":"Texas","lon":-97.65022,"winner":"purple","zip":"78664","votes":{"red":291,"purple":1017,"blue":415},"distance":17.4,"lat":30.543402},{"address":"1870 S BAGDAD RD","id":35471,"state":"TX","total_votes":516,"city":"Leander","state_name":"Texas","lon":-97.85558619999999,"winner":"red","zip":"78641","votes":{"red":252,"purple":168,"blue":96},"distance":17.9,"lat":30.551726},{"address":"707 S US HWY 183","id":35791,"state":"TX","total_votes":923,"city":"Leander","state_name":"Texas","lon":-97.84930949999999,"winner":"purple","zip":"78641","votes":{"red":326,"purple":334,"blue":263},"distance":19.0,"lat":30.5702119},{"address":"101 S HIGHWAY 183","id":36555,"state":"TX","total_votes":1160,"city":"Leander","state_name":"Texas","lon":-97.85301799999999,"winner":"purple","zip":"78641","votes":{"red":305,"purple":568,"blue":287},"distance":19.6,"lat":30.578227},{"address":"22553 IH 35","id":35881,"state":"TX","total_votes":773,"city":"Kyle","state_name":"Texas","lon":-97.866739,"winner":"red","zip":"78640","votes":{"red":332,"purple":317,"blue":124},"distance":21.5,"lat":30.0128981},{"address":"200A HIGHWAY 290 E","id":36558,"state":"TX","total_votes":178,"city":"Elgin","state_name":"Texas","lon":-97.3713779,"winner":"purple","zip":"78621","votes":{"red":8,"purple":160,"blue":10},"distance":22.9,"lat":30.3368801},{"address":"2995 WILLIAMS DR","id":34250,"state":"TX","total_votes":1081,"city":"Georgetown","state_name":"Texas","lon":-97.69104809999999,"winner":"purple","zip":"78628","votes":{"red":265,"purple":479,"blue":337},"distance":24.8,"lat":30.6627899},{"address":"1004 IH 35","id":35803,"state":"TX","total_votes":1261,"city":"San Marcos","state_name":"Texas","lon":-97.9222234,"winner":"purple","zip":"78666","votes":{"red":307,"purple":633,"blue":321},"distance":31.2,"lat":29.8810774},{"address":"12121 FM 306","id":36576,"state":"TX","total_votes":1457,"city":"Canyon Lake","state_name":"Texas","lon":-98.16066699999999,"winner":"purple","zip":"78133","votes":{"red":568,"purple":636,"blue":253},"distance":39.3,"lat":29.862402},{"address":"8000 FM 2147 WEST","id":17436,"state":"TX","total_votes":312,"city":"Horseshoe Bay","state_name":"Texas","lon":-98.36980989999999,"winner":"red","zip":"78657","votes":{"red":124,"purple":78,"blue":110},"distance":40.2,"lat":30.5439524},{"address":"301 SHORT ST","id":19713,"state":"TX","total_votes":1561,"city":"Smithville","state_name":"Texas","lon":-97.15495659999999,"winner":"red","zip":"78957-1534","votes":{"red":828,"purple":402,"blue":331},"distance":41.4,"lat":30.0067813},{"address":"10430 FM 2673","id":36569,"state":"TX","total_votes":1225,"city":"Canyon Lake","state_name":"Texas","lon":-98.2920455,"winner":"purple","zip":"78133","votes":{"red":436,"purple":468,"blue":321},"distance":44.4,"lat":29.8652602},{"address":"8470 FM 2673","id":36568,"state":"TX","total_votes":754,"city":"Canyon Lake","state_name":"Texas","lon":-98.273466,"winner":"red","zip":"78133","votes":{"red":364,"purple":278,"blue":112},"distance":44.6,"lat":29.844632},{"address":"2606 W RANCH RD 1431","id":36572,"state":"TX","total_votes":810,"city":"Kingsland","state_name":"Texas","lon":-98.450473,"winner":"purple","zip":"78639","votes":{"red":290,"purple":352,"blue":168},"distance":48.4,"lat":30.667099},{"address":"1185 IH 35 E","id":36304,"state":"TX","total_votes":376,"city":"New Braunfels","state_name":"Texas","lon":-98.127788,"winner":"purple","zip":"78130","votes":{"red":116,"purple":177,"blue":83},"distance":48.5,"lat":29.685102},{"address":"2701 S IH 35","id":35789,"state":"TX","total_votes":2082,"city":"Belton","state_name":"Texas","lon":-97.475144,"winner":"purple","zip":"76513","votes":{"red":715,"purple":749,"blue":618},"distance":52.7,"lat":31.031579},{"address":"33889 US HWY 281 N","id":36259,"state":"TX","total_votes":621,"city":"Bulverde","state_name":"Texas","lon":-98.420599,"winner":"red","zip":"78163","votes":{"red":399,"purple":80,"blue":142},"distance":53.3,"lat":29.797114},{"address":"1000 W S YOUNG DR","id":17529,"state":"TX","total_votes":1153,"city":"Killeen","state_name":"Texas","lon":-97.7182696,"winner":"red","zip":"76543-4805","votes":{"red":439,"purple":362,"blue":352},"distance":54.3,"lat":31.0938309},{"address":"3600 S CLEAR CREEK RD","id":36805,"state":"TX","total_votes":1534,"city":"Killeen","state_name":"Texas","lon":-97.80358,"winner":"purple","zip":"76543","votes":{"red":450,"purple":652,"blue":432},"distance":55.0,"lat":31.10287},{"address":"1219 S FORT HOOD ST","id":34255,"state":"TX","total_votes":523,"city":"Killeen","state_name":"Texas","lon":-97.74934619999999,"winner":"red","zip":"76542","votes":{"red":201,"purple":143,"blue":179},"distance":55.1,"lat":31.1057548},{"address":"21900 IH 35 N","id":35800,"state":"TX","total_votes":291,"city":"Schertz","state_name":"Texas","lon":-98.2394747,"winner":"blue","zip":"78132","votes":{"red":61,"purple":107,"blue":123},"distance":55.5,"lat":29.6243747},{"address":"1001 WILLOW SPRINGS, #1","id":27860,"state":"TX","total_votes":1361,"city":"Killeen","state_name":"Texas","lon":-97.76237,"winner":"purple","zip":"76542-8099","votes":{"red":122,"purple":1155,"blue":84},"distance":55.6,"lat":31.11283},{"address":"620-A FORT HOOD","id":27496,"state":"TX","total_votes":709,"city":"Killeen","state_name":"Texas","lon":-97.7443134,"winner":"red","zip":"76541-6821","votes":{"red":317,"purple":120,"blue":272},"distance":55.8,"lat":31.11616},{"address":"2124 E HWY 190","id":16802,"state":"TX","total_votes":640,"city":"Copperas Cove","state_name":"Texas","lon":-97.88092139999999,"winner":"purple","zip":"76522-2543","votes":{"red":212,"purple":302,"blue":126},"distance":56.6,"lat":31.1201238},{"address":"2411 E HWY 190","id":34254,"state":"TX","total_votes":754,"city":"Copperas Cove","state_name":"Texas","lon":-97.87778170000001,"winner":"blue","zip":"76522","votes":{"red":250,"purple":166,"blue":338},"distance":56.7,"lat":31.1211034},{"address":"4110 S 31ST ST","id":35790,"state":"TX","total_votes":832,"city":"Temple","state_name":"Texas","lon":-97.37356,"winner":"purple","zip":"76504","votes":{"red":195,"purple":455,"blue":182},"distance":56.7,"lat":31.0605},{"address":"1814 N WS YOUNG","id":21135,"state":"TX","total_votes":1403,"city":"Killeen","state_name":"Texas","lon":-97.7061049,"winner":"blue","zip":"76543-3179","votes":{"red":542,"purple":297,"blue":564},"distance":56.8,"lat":31.1292},{"address":"501 N 1ST ST","id":18450,"state":"TX","total_votes":501,"city":"Copperas Cove","state_name":"Texas","lon":-97.9020522,"winner":"purple","zip":"76522-1308","votes":{"red":184,"purple":233,"blue":84},"distance":57.3,"lat":31.1280407},{"address":"2303 S 57TH ST","id":35794,"state":"TX","total_votes":1158,"city":"Temple","state_name":"Texas","lon":-97.3795396,"winner":"purple","zip":"76504","votes":{"red":330,"purple":536,"blue":292},"distance":58.0,"lat":31.0835725},{"address":"2012 W AVE B","id":16466,"state":"TX","total_votes":1441,"city":"Copperas Cove","state_name":"Texas","lon":-97.9222654,"winner":"purple","zip":"76522-8418","votes":{"red":475,"purple":709,"blue":257},"distance":58.2,"lat":31.1379447},{"address":"1216 W AVE H","id":22387,"state":"TX","total_votes":2272,"city":"Temple","state_name":"Texas","lon":-97.3566645,"winner":"purple","zip":"76504-5343","votes":{"red":539,"purple":1154,"blue":579},"distance":59.1,"lat":31.0925259},{"address":"26950 HWY 281 N","id":36527,"state":"TX","total_votes":1004,"city":"San Antonio","state_name":"Texas","lon":-98.449302,"winner":"purple","zip":"78260","votes":{"red":363,"purple":474,"blue":167},"distance":59.3,"lat":29.697455},{"address":"4315 W ADAMS","id":24864,"state":"TX","total_votes":197,"city":"Temple","state_name":"Texas","lon":-97.3872291,"winner":"purple","zip":"76504-3549","votes":{"red":25,"purple":144,"blue":28},"distance":59.5,"lat":31.1092703},{"address":"900 ROY RICHARD RD","id":35802,"state":"TX","total_votes":1970,"city":"Schertz","state_name":"Texas","lon":-98.2580073,"winner":"red","zip":"78154","votes":{"red":798,"purple":572,"blue":600},"distance":59.5,"lat":29.5659517},{"address":"2701 NORTH 3RD ST","id":17921,"state":"TX","total_votes":1356,"city":"Temple","state_name":"Texas","lon":-97.3353087,"winner":"blue","zip":"76501-1359","votes":{"red":452,"purple":374,"blue":530},"distance":61.5,"lat":31.1223877},{"address":"3100 PAT BOOKER RD","id":36254,"state":"TX","total_votes":759,"city":"Universal City","state_name":"Texas","lon":-98.32490349999999,"winner":"purple","zip":"78148","votes":{"red":196,"purple":388,"blue":175},"distance":62.0,"lat":29.5601701},{"address":"942 KITTYHAWK DR","id":36598,"state":"TX","total_votes":221,"city":"Universal City","state_name":"Texas","lon":-98.31382909999999,"winner":"purple","zip":"78148","votes":{"red":66,"purple":82,"blue":73},"distance":62.4,"lat":29.5467812},{"address":"12351 I-35 NORTH","id":36614,"state":"TX","total_votes":1155,"city":"San Antonio","state_name":"Texas","lon":-98.35611724853516,"winner":"purple","zip":"78233","votes":{"red":316,"purple":505,"blue":334},"distance":63.4,"lat":29.552717208862305},{"address":"11702 N IH 35","id":36602,"state":"TX","total_votes":1292,"city":"San Antonio","state_name":"Texas","lon":-98.367786,"winner":"purple","zip":"78233-5308","votes":{"red":362,"purple":482,"blue":448},"distance":64.3,"lat":29.545413},{"address":"9084 FM 78","id":35804,"state":"TX","total_votes":1225,"city":"Converse","state_name":"Texas","lon":-98.3087446,"winner":"purple","zip":"78109","votes":{"red":251,"purple":630,"blue":344},"distance":64.5,"lat":29.5079241},{"address":"19185 STONE OAK PKWY","id":36257,"state":"TX","total_votes":401,"city":"San Antonio","state_name":"Texas","lon":-98.4956861,"winner":"red","zip":"78258","votes":{"red":162,"purple":98,"blue":141},"distance":64.7,"lat":29.6263929},{"address":"7285 CRESTWAY DR","id":36601,"state":"TX","total_votes":1045,"city":"San Antonio","state_name":"Texas","lon":-98.34554519999999,"winner":"purple","zip":"78239","votes":{"red":143,"purple":540,"blue":362},"distance":64.8,"lat":29.5226835},{"address":"15302 SAN PEDRO AVE","id":36287,"state":"TX","total_votes":54,"city":"San Antonio","state_name":"Texas","lon":-98.47591229999999,"winner":"blue","zip":"78232","votes":{"red":15,"purple":19,"blue":20},"distance":66.3,"lat":29.5802528},{"address":"298 W BITTERS RD","id":36278,"state":"TX","total_votes":249,"city":"San Antonio","state_name":"Texas","lon":-98.48671089999999,"winner":"red","zip":"78216","votes":{"red":101,"purple":68,"blue":80},"distance":67.4,"lat":29.5677098},{"address":"5603 N FOSTER RD","id":36595,"state":"TX","total_votes":1736,"city":"San Antonio","state_name":"Texas","lon":-98.36114,"winner":"purple","zip":"78244","votes":{"red":419,"purple":668,"blue":649},"distance":67.8,"lat":29.47958},{"address":"14702 BLANCO RD","id":36583,"state":"TX","total_votes":1140,"city":"San Antonio","state_name":"Texas","lon":-98.51282890000002,"winner":"purple","zip":"78216","votes":{"red":361,"purple":474,"blue":305},"distance":68.0,"lat":29.5770496},{"address":"7050 N INTERSTATE 35","id":36608,"state":"TX","total_votes":733,"city":"San Antonio","state_name":"Texas","lon":-98.3994759,"winner":"red","zip":"78218","votes":{"red":276,"purple":212,"blue":245},"distance":68.2,"lat":29.4959504},{"address":"12011 SAN PEDRO AVE","id":36624,"state":"TX","total_votes":1405,"city":"San Antonio","state_name":"Texas","lon":-98.4890552,"winner":"blue","zip":"78216-2836","votes":{"red":339,"purple":501,"blue":565},"distance":68.4,"lat":29.5502206},{"address":"1202 NE LOOP 410","id":36277,"state":"TX","total_votes":30,"city":"San Antonio","state_name":"Texas","lon":-98.45187,"winner":"purple","zip":"78209","votes":{"red":4,"purple":17,"blue":9},"distance":68.9,"lat":29.515271},{"address":"6110 N PAN AM EXPY","id":36637,"state":"TX","total_votes":2710,"city":"San Antonio","state_name":"Texas","lon":-98.402389,"winner":"red","zip":"78218","votes":{"red":972,"purple":961,"blue":777},"distance":69.0,"lat":29.483507},{"address":"10110 SAN PEDRO RD","id":36613,"state":"TX","total_votes":55,"city":"San Antonio","state_name":"Texas","lon":-98.4951712,"winner":"red","zip":"78216","votes":{"red":21,"purple":14,"blue":20},"distance":69.6,"lat":29.5330428}]
